[{"OBJECT_NAME":"GONETS-M 17","OBJECT_ID":"2020-068A","EPOCH":"2026-03-09T22:55:28.193952","MEAN_MOTION":12.42869183,"ECCENTRICITY":0.00212582,"INCLINATION":82.4966,"RA_OF_ASC_NODE":49.2242,"ARG_OF_PERICENTER":251.7945,"MEAN_ANOMALY":108.0821,"EPHEMERIS_TYPE":0,"CLASSIFICATION_TYPE":"U","NORAD_CAT_ID":46486,"ELEMENT_SET_NO":999,"REV_AT_EPOCH":24683,"BSTAR":-5.963985e-6,"MEAN_MOTION_DOT":9.0e-8,"MEAN_MOTION_DDOT":0},{"OBJECT_NAME":"DELTA 1 DEB","OBJECT_ID":"1976-077DG","EPOCH":"2026-03-09T20:44:48.003072","MEAN_MOTION":12.3809864,"ECCENTRICITY":0.00379811,"INCLINATION":102.1453,"RA_OF_ASC_NODE":39.8738,"ARG_OF_PERICENTER":220.1374,"MEAN_ANOMALY":196.3918,"EPHEMERIS_TYPE":0,"CLASSIFICATION_TYPE":"U","NORAD_CAT_ID":12527,"ELEMENT_SET_NO":999,"REV_AT_EPOCH":13966,"BSTAR":0.00078171296,"MEAN_MOTION_DOT":5.7e-7,"MEAN_MOTION_DDOT":0}]
